[
  {
    "links": {
      "self": "http://www.neowsapp.com/rest/v1/neo/2099942?api_key=aoJTdYnX9QLpV0MRcixrSG9mthc55tJIr1l3Yri7"
    },
    "id": "2099942",
    "neo_reference_id": "2099942",
    "name": "99942 Apophis (2004 MN4)",
    "name_limited": "Apophis",
    "designation": "99942",
    "nasa_jpl_url": "http://ssd.jpl.nasa.gov/sbdb.cgi?sstr=2099942",
    "absolute_magnitude_h": 19.7,
    "estimated_diameter": {
      "kilometers": {
        "estimated_diameter_min": 0.3051792326,
        "estimated_diameter_max": 0.6824015094
      },
      "meters": {
        "estimated_diameter_min": 305.1792325939,
        "estimated_diameter_max": 682.4015094011
      },
      "miles": {
        "estimated_diameter_min": 0.1896295249,
        "estimated_diameter_max": 0.4240245083
      },
      "feet": {
        "estimated_diameter_min": 1001.2442334633,
        "estimated_diameter_max": 2238.8501681036
      }
    },
    "is_potentially_hazardous_asteroid": true,
    "close_approach_data": {
      "close_approach_date": "2029-04-13",
      "close_approach_date_full": "2029-Apr-13 21:46",
      "epoch_date_close_approach": 1870811160000,
      "relative_velocity": {
        "kilometers_per_second": "7.4225359949",
        "kilometers_per_hour": "26721.1295815929",
        "miles_per_hour": "16603.4707669626"
      },
      "miss_distance": {
        "astronomical": "0.0002540914",
        "lunar": "0.0988415546",
        "kilometers": "38011.532225318",
        "miles": "23619.2708846684"
      },
      "orbiting_body": "Earth"
    },
    "orbital_data": {
      "orbit_id": "216",
      "orbit_determination_date": "2021-06-29 11:09:44",
      "first_observation_date": "2004-03-15",
      "last_observation_date": "2021-05-12",
      "data_arc_in_days": 6267,
      "observations_used": 7300,
      "orbit_uncertainty": "0",
      "minimum_orbit_intersection": ".000244177",
      "jupiter_tisserand_invariant": "6.465",
      "epoch_osculation": "2459600.5",
      "eccentricity": ".1913839820496301",
      "semi_major_axis": ".9226958893585622",
      "inclination": "3.338951721314444",
      "ascending_node_longitude": "203.9614276677966",
      "orbital_period": "323.7325033699091",
      "perihelion_distance": ".7461066758322956",
      "perihelion_argument": "126.5959309724569",
      "aphelion_distance": "1.099285102884829",
      "perihelion_time": "2459748.288907609831",
      "mean_anomaly": "195.6544178118983",
      "mean_motion": "1.112029210081047",
      "equinox": "J2000",
      "orbit_class": {
        "orbit_class_type": "ATE",
        "orbit_class_description": "Near-Earth asteroid orbits similar to that of 2062 Aten",
        "orbit_class_range": "a (semi-major axis) < 1.0 AU; q (perihelion) > 0.983 AU"
      }
    },
    "is_sentry_object": false
  },
  {
    "links": {
      "self": "http://www.neowsapp.com/rest/v1/neo/2099942?api_key=aoJTdYnX9QLpV0MRcixrSG9mthc55tJIr1l3Yri7"
    },
    "id": "2099942",
    "neo_reference_id": "2099942",
    "name": "99942 Apophis (2004 MN4)",
    "name_limited": "Apophis",
    "designation": "99942",
    "nasa_jpl_url": "http://ssd.jpl.nasa.gov/sbdb.cgi?sstr=2099942",
    "absolute_magnitude_h": 19.7,
    "estimated_diameter": {
      "kilometers": {
        "estimated_diameter_min": 0.3051792326,
        "estimated_diameter_max": 0.6824015094
      },
      "meters": {
        "estimated_diameter_min": 305.1792325939,
        "estimated_diameter_max": 682.4015094011
      },
      "miles": {
        "estimated_diameter_min": 0.1896295249,
        "estimated_diameter_max": 0.4240245083
      },
      "feet": {
        "estimated_diameter_min": 1001.2442334633,
        "estimated_diameter_max": 2238.8501681036
      }
    },
    "is_potentially_hazardous_asteroid": true,
    "close_approach_data": {
      "close_approach_date": "2029-04-13",
      "close_approach_date_full": "2029-Apr-13 21:46",
      "epoch_date_close_approach": 1870811160000,
      "relative_velocity": {
        "kilometers_per_second": "7.4225359949",
        "kilometers_per_hour": "26721.1295815929",
        "miles_per_hour": "16603.4707669626"
      },
      "miss_distance": {
        "astronomical": "0.0002540914",
        "lunar": "0.0988415546",
        "kilometers": "38011.532225318",
        "miles": "23619.2708846684"
      },
      "orbiting_body": "Earth"
    },
    "orbital_data": {
      "orbit_id": "216",
      "orbit_determination_date": "2021-06-29 11:09:44",
      "first_observation_date": "2004-03-15",
      "last_observation_date": "2021-05-12",
      "data_arc_in_days": 6267,
      "observations_used": 7300,
      "orbit_uncertainty": "0",
      "minimum_orbit_intersection": ".000244177",
      "jupiter_tisserand_invariant": "6.465",
      "epoch_osculation": "2459600.5",
      "eccentricity": ".1913839820496301",
      "semi_major_axis": ".9226958893585622",
      "inclination": "3.338951721314444",
      "ascending_node_longitude": "203.9614276677966",
      "orbital_period": "323.7325033699091",
      "perihelion_distance": ".7461066758322956",
      "perihelion_argument": "126.5959309724569",
      "aphelion_distance": "1.099285102884829",
      "perihelion_time": "2459748.288907609831",
      "mean_anomaly": "195.6544178118983",
      "mean_motion": "1.112029210081047",
      "equinox": "J2000",
      "orbit_class": {
        "orbit_class_type": "ATE",
        "orbit_class_description": "Near-Earth asteroid orbits similar to that of 2062 Aten",
        "orbit_class_range": "a (semi-major axis) < 1.0 AU; q (perihelion) > 0.983 AU"
      }
    },
    "is_sentry_object": false
  },
  {
    "links": {
      "self": "http://www.neowsapp.com/rest/v1/neo/2085640?api_key=aoJTdYnX9QLpV0MRcixrSG9mthc55tJIr1l3Yri7"
    },
    "id": "2085640",
    "neo_reference_id": "2085640",
    "name": "85640 (1998 OX4)",
    "designation": "85640",
    "nasa_jpl_url": "http://ssd.jpl.nasa.gov/sbdb.cgi?sstr=2085640",
    "absolute_magnitude_h": 21.1,
    "estimated_diameter": {
      "kilometers": {
        "estimated_diameter_min": 0.160160338,
        "estimated_diameter_max": 0.358129403
      },
      "meters": {
        "estimated_diameter_min": 160.1603379786,
        "estimated_diameter_max": 358.1294030194
      },
      "miles": {
        "estimated_diameter_min": 0.0995189894,
        "estimated_diameter_max": 0.2225312253
      },
      "feet": {
        "estimated_diameter_min": 525.4604432536,
        "estimated_diameter_max": 1174.9652706022
      }
    },
    "is_potentially_hazardous_asteroid": true,
    "close_approach_data": {
      "close_approach_date": "2148-01-22",
      "close_approach_date_full": "2148-Jan-22 03:24",
      "epoch_date_close_approach": 5618949840000,
      "relative_velocity": {
        "kilometers_per_second": "12.2954513511",
        "kilometers_per_hour": "44263.62486382",
        "miles_per_hour": "27503.6951271886"
      },
      "miss_distance": {
        "astronomical": "0.0019801434",
        "lunar": "0.7702757826",
        "kilometers": "296225.234934558",
        "miles": "184065.8257425804"
      },
      "orbiting_body": "Earth"
    },
    "orbital_data": {
      "orbit_id": "64",
      "orbit_determination_date": "2021-04-13 14:14:05",
      "first_observation_date": "1998-07-26",
      "last_observation_date": "2019-05-01",
      "data_arc_in_days": 7584,
      "observations_used": 274,
      "orbit_uncertainty": "0",
      "minimum_orbit_intersection": ".00083537",
      "jupiter_tisserand_invariant": "4.253",
      "epoch_osculation": "2459600.5",
      "eccentricity": ".4857791428242028",
      "semi_major_axis": "1.580198444436687",
      "inclination": "4.515495349671481",
      "ascending_node_longitude": "299.5945594706805",
      "orbital_period": "725.5475363620393",
      "perihelion_distance": ".8125709986060942",
      "perihelion_argument": "117.2657212685344",
      "aphelion_distance": "2.347825890267279",
      "perihelion_time": "2459843.996011435527",
      "mean_anomaly": "239.1828795170089",
      "mean_motion": ".4961770000695921",
      "equinox": "J2000",
      "orbit_class": {
        "orbit_class_type": "APO",
        "orbit_class_description": "Near-Earth asteroid orbits which cross the Earth\u2019s orbit similar to that of 1862 Apollo",
        "orbit_class_range": "a (semi-major axis) > 1.0 AU; q (perihelion) < 1.017 AU"
      }
    },
    "is_sentry_object": false
  }
]